DELTA 2 R/B(1)          
1 20453U 90008B   26038.24001822  .00085042  00000+0  11272-2 0  9992
2 20453  35.6060  14.0358 0095141 334.6672  24.9417 15.51758166921394
COSMOS 2058             
1 20465U 90010A   26038.18901225  .00005131  00000+0  30481-3 0  9992
2 20465  82.4636  77.4750 0012077  82.1778 278.0822 15.11040033937633
SL-14 R/B               
1 20466U 90010B   26038.20079316  .00000639  00000+0  74413-4 0  9995
2 20466  82.5030 296.0283 0020917  43.5743 316.7119 14.83542264923969
SL-14 R/B               
1 20511U 90018B   26038.18917852  .00000538  00000+0  64565-4 0  9992
2 20511  82.5182 251.6048 0016093 187.5334 172.5641 14.82113296918060
HST                     
1 20580U 90037B   26037.81329490  .00008603  00000+0  28897-3 0  9991
2 20580  28.4665 250.5538 0001882 124.2340 235.8434 15.28986369768581
SL-16 R/B               
1 20625U 90046B   26038.29971648  .00000137  00000+0  95213-4 0  9993
2 20625  71.0001   1.7349 0014621 341.8563  18.2035 14.15005591844099
COSMOS 2084             
1 20663U 90055A   26038.30204037  .00003398  00000+0  24822-3 0  9997
2 20663  62.7898  79.2043 0021913 183.7432 176.3508 15.05454490931749
SL-6 R/B(2)             
1 20666U 90055D   26038.31012141  .00003656  00000+0  28059-3 0  9997
2 20666  62.7851 357.1471 0020221 338.2962  21.7278 15.03433149933622
SL-8 R/B                
1 20775U 90078B   26038.12430907  .00018978  00000+0  55994-3 0  9997
2 20775  82.9020 278.7760 0367199 116.4027 247.5372 14.88052929804759
SL-8 R/B                
1 21088U 91006B   26037.98370255  .00000026  00000+0  10144-4 0  9993
2 21088  82.9428 192.8748 0023545 119.9931   0.8838 13.77491992759847
OKEAN-3                 
1 21397U 91039A   26038.28807949  .00004576  00000+0  32346-3 0  9992
2 21397  82.5182   6.2867 0016491  76.5487 283.7576 15.04563092860464
COSMOS 2151             
1 21422U 91042A   26038.26517027  .00002683  00000+0  21346-3 0  9993
2 21422  82.4964 113.0241 0013162 156.1250 204.0587 14.99987504858633
